{"type": "FeatureCollection", "features": [ {"type": "Feature", "properties": {"norad_id": 57401, "name": "TIANMU-1 09", "group": "weather", "lat": -11.525765875329276, "lon": -147.08989860989988, "alt_km": 487.22858857997653, "timestamp": "2025-12-11T05:00:25.954997+00:00", "meta": {"OBJECT_NAME": "TIANMU-1 09", "OBJECT_ID": "2023-101C", "EPOCH": "2025-12-10T23:27:26.828640", "MEAN_MOTION": 15.28040116, "ECCENTRICITY": 0.00068084, "INCLINATION": 97.2823, "RA_OF_ASC_NODE": 34.1784, "ARG_OF_PERICENTER": 88.649, "MEAN_ANOMALY": 271.553, "EPHEMERIS_TYPE": 0, "CLASSIFICATION_TYPE": "U", "NORAD_CAT_ID": 57401, "ELEMENT_SET_NO": 999, "REV_AT_EPOCH": 13288, "BSTAR": 0.00041653487, "MEAN_MOTION_DOT": 0.00011332, "MEAN_MOTION_DDOT": 0}, "tle": {"line1": "1 57401U 23101C   25344.97739385  .00011332  00000+0  41653-3 0  9994", "line2": "2 57401  97.2823  34.1784 0006808  88.6490 271.5530 15.28040116132887"}}, "geometry": {"type": "Point", "coordinates": [-147.08989860989988, -11.525765875329276]}}, {"type": "Feature", "properties": {"norad_id": 57402, "name": "TIANMU-1 10", "group": "weather", "lat": 3.1477686996522642, "lon": 34.84913402790084, "alt_km": 483.7858752123484, "timestamp": "2025-12-11T05:00:25.955010+00:00", "meta": {"OBJECT_NAME": "TIANMU-1 10", "OBJECT_ID": "2023-101D", "EPOCH": "2025-12-10T22:42:24.194304", "MEAN_MOTION": 15.28030566, "ECCENTRICITY": 0.00085799, "INCLINATION": 97.2904, "RA_OF_ASC_NODE": 34.9957, "ARG_OF_PERICENTER": 88.6162, "MEAN_ANOMALY": 271.6061, "EPHEMERIS_TYPE": 0, "CLASSIFICATION_TYPE": "U", "NORAD_CAT_ID": 57402, "ELEMENT_SET_NO": 999, "REV_AT_EPOCH": 13287, "BSTAR": 0.00041628343, "MEAN_MOTION_DOT": 0.00011326, "MEAN_MOTION_DDOT": 0}, "tle": {"line1": "1 57402U 23101D   25344.94611336  .00011326  00000+0  41628-3 0  9992", "line2": "2 57402  97.2904  34.9957 0008579  88.6162 271.6061 15.28030566132878"}}, "geometry": {"type": "Point", "coordinates": [34.84913402790084, 3.1477686996522642]}}, {"type": "Feature", "properties": {"norad_id": 57490, "name": "FENGYUN 3F", "group": "weather", "lat": 41.076123085743646, "lon": -118.79590642880945, "alt_km": 822.0379002557429, "timestamp": "2025-12-11T05:00:25.955020+00:00", "meta": {"OBJECT_NAME": "FENGYUN 3F", "OBJECT_ID": "2023-111A", "EPOCH": "2025-12-10T23:17:04.747776", "MEAN_MOTION": 14.19892846, "ECCENTRICITY": 6.56e-05, "INCLINATION": 98.7086, "RA_OF_ASC_NODE": 53.2921, "ARG_OF_PERICENTER": 98.2604, "MEAN_ANOMALY": 261.8647, "EPHEMERIS_TYPE": 0, "CLASSIFICATION_TYPE": "U", "NORAD_CAT_ID": 57490, "ELEMENT_SET_NO": 999, "REV_AT_EPOCH": 12215, "BSTAR": 8.3139572e-05, "MEAN_MOTION_DOT": 1.33e-06, "MEAN_MOTION_DDOT": 0}, "tle": {"line1": "1 57490U 23111A   25344.97019384  .00000133  00000+0  83140-4 0  9998", "line2": "2 57490  98.7086  53.2921 0000656  98.2604 261.8647 14.19892846122150"}}, "geometry": {"type": "Point", "coordinates": [-118.79590642880945, 41.076123085743646]}}, {"type": "Feature", "properties": {"norad_id": 58584, "name": "ARKTIKA-M 2", "group": "weather", "lat": 48.63249877171188, "lon": -39.94427301842965, "alt_km": 25876.944995625043, "timestamp": "2025-12-11T05:00:25.955032+00:00", "meta": {"OBJECT_NAME": "ARKTIKA-M 2", "OBJECT_ID": "2023-198A", "EPOCH": "2025-12-08T20:10:13.977120", "MEAN_MOTION": 2.0060476, "ECCENTRICITY": 0.68646991, "INCLINATION": 63.2247, "RA_OF_ASC_NODE": 175.3152, "ARG_OF_PERICENTER": 268.1185, "MEAN_ANOMALY": 18.8267, "EPHEMERIS_TYPE": 0, "CLASSIFICATION_TYPE": "U", "NORAD_CAT_ID": 58584, "ELEMENT_SET_NO": 999, "REV_AT_EPOCH": 1450, "BSTAR": 0, "MEAN_MOTION_DOT": 1.66e-06, "MEAN_MOTION_DDOT": 0}, "tle": {"line1": "1 58584U 23198A   25342.84043955  .00000166  00000+0  00000+0 0  9998", "line2": "2 58584  63.2247 175.3152 6864699 268.1185  18.8267  2.00604760 14506"}}, "geometry": {"type": "Point", "coordinates": [-39.94427301842965, 48.63249877171188]}}, {"type": "Feature", "properties": {"norad_id": 58645, "name": "TIANMU-1 11", "group": "weather", "lat": -21.473207178703337, "lon": -178.0564001580097, "alt_km": 499.86349875495307, "timestamp": "2025-12-11T05:00:25.955044+00:00", "meta": {"OBJECT_NAME": "TIANMU-1 11", "OBJECT_ID": "2023-205A", "EPOCH": "2025-12-10T23:23:58.380864", "MEAN_MOTION": 15.24563448, "ECCENTRICITY": 0.00080579, "INCLINATION": 97.3611, "RA_OF_ASC_NODE": 4.629, "ARG_OF_PERICENTER": 317.7689, "MEAN_ANOMALY": 42.2927, "EPHEMERIS_TYPE": 0, "CLASSIFICATION_TYPE": "U", "NORAD_CAT_ID": 58645, "ELEMENT_SET_NO": 999, "REV_AT_EPOCH": 10882, "BSTAR": 0.00036636091, "MEAN_MOTION_DOT": 8.963e-05, "MEAN_MOTION_DDOT": 0}, "tle": {"line1": "1 58645U 23205A   25344.97498126  .00008963  00000+0  36636-3 0  9996", "line2": "2 58645  97.3611   4.6290 0008057 317.7689  42.2927 15.24563448108826"}}, "geometry": {"type": "Point", "coordinates": [-178.0564001580097, -21.473207178703337]}}, {"type": "Feature", "properties": {"norad_id": 58646, "name": "TIANMU-1 12", "group": "weather", "lat": 53.820001359625024, "lon": -5.515013521308596, "alt_km": 489.21179920899704, "timestamp": "2025-12-11T05:00:25.955055+00:00", "meta": {"OBJECT_NAME": "TIANMU-1 12", "OBJECT_ID": "2023-205B", "EPOCH": "2025-12-11T00:02:34.889280", "MEAN_MOTION": 15.24445493, "ECCENTRICITY": 0.00059564, "INCLINATION": 97.3599, "RA_OF_ASC_NODE": 4.4615, "ARG_OF_PERICENTER": 299.1808, "MEAN_ANOMALY": 60.8834, "EPHEMERIS_TYPE": 0, "CLASSIFICATION_TYPE": "U", "NORAD_CAT_ID": 58646, "ELEMENT_SET_NO": 999, "REV_AT_EPOCH": 10881, "BSTAR": 0.00040066523, "MEAN_MOTION_DOT": 9.772e-05, "MEAN_MOTION_DDOT": 0}, "tle": {"line1": "1 58646U 23205B   25345.00179270  .00009772  00000+0  40067-3 0  9990", "line2": "2 58646  97.3599   4.4615 0005956 299.1808  60.8834 15.24445493108813"}}, "geometry": {"type": "Point", "coordinates": [-5.515013521308596, 53.820001359625024]}}, {"type": "Feature", "properties": {"norad_id": 58647, "name": "TIANMU-1 13", "group": "weather", "lat": -49.7139252840241, "lon": 176.09037225886203, "alt_km": 496.2919386254225, "timestamp": "2025-12-11T05:00:25.955067+00:00", "meta": {"OBJECT_NAME": "TIANMU-1 13", "OBJECT_ID": "2023-205C", "EPOCH": "2025-12-10T23:16:26.452704", "MEAN_MOTION": 15.24487634, "ECCENTRICITY": 0.00060377, "INCLINATION": 97.3626, "RA_OF_ASC_NODE": 4.6301, "ARG_OF_PERICENTER": 275.4754, "MEAN_ANOMALY": 84.5795, "EPHEMERIS_TYPE": 0, "CLASSIFICATION_TYPE": "U", "NORAD_CAT_ID": 58647, "ELEMENT_SET_NO": 999, "REV_AT_EPOCH": 10880, "BSTAR": 0.00038049876, "MEAN_MOTION_DOT": 9.288e-05, "MEAN_MOTION_DDOT": 0}, "tle": {"line1": "1 58647U 23205C   25344.96975061  .00009288  00000+0  38050-3 0  9998", "line2": "2 58647  97.3626   4.6301 0006037 275.4754  84.5795 15.24487634108808"}}, "geometry": {"type": "Point", "coordinates": [176.09037225886203, -49.7139252840241]}}, {"type": "Feature", "properties": {"norad_id": 58648, "name": "TIANMU-1 14", "group": "weather", "lat": -38.29932506177371, "lon": 10.070597859753992, "alt_km": 495.33713491959224, "timestamp": "2025-12-11T05:00:25.955078+00:00", "meta": {"OBJECT_NAME": "TIANMU-1 14", "OBJECT_ID": "2023-205D", "EPOCH": "2025-12-11T00:27:01.650240", "MEAN_MOTION": 15.24472089, "ECCENTRICITY": 0.00068811, "INCLINATION": 97.3559, "RA_OF_ASC_NODE": 4.0286, "ARG_OF_PERICENTER": 280.351, "MEAN_ANOMALY": 79.6952, "EPHEMERIS_TYPE": 0, "CLASSIFICATION_TYPE": "U", "NORAD_CAT_ID": 58648, "ELEMENT_SET_NO": 999, "REV_AT_EPOCH": 10881, "BSTAR": 0.00039185853, "MEAN_MOTION_DOT": 9.565e-05, "MEAN_MOTION_DDOT": 0}, "tle": {"line1": "1 58648U 23205D   25345.01876910  .00009565  00000+0  39186-3 0  9998", "line2": "2 58648  97.3559   4.0286 0006881 280.3510  79.6952 15.24472089108811"}}, "geometry": {"type": "Point", "coordinates": [10.070597859753992, -38.29932506177371]}}, {"type": "Feature", "properties": {"norad_id": 58660, "name": "TIANMU-1 19", "group": "weather", "lat": -17.843717316401676, "lon": -86.16200772028772, "alt_km": 486.1907596579058, "timestamp": "2025-12-11T05:00:25.955088+00:00", "meta": {"OBJECT_NAME": "TIANMU-1 19", "OBJECT_ID": "2023-208A", "EPOCH": "2025-12-10T21:51:20.755296", "MEAN_MOTION": 15.27794559, "ECCENTRICITY": 0.0004038, "INCLINATION": 97.4387, "RA_OF_ASC_NODE": 95.9512, "ARG_OF_PERICENTER": 261.3704, "MEAN_ANOMALY": 98.7078, "EPHEMERIS_TYPE": 0, "CLASSIFICATION_TYPE": "U", "NORAD_CAT_ID": 58660, "ELEMENT_SET_NO": 999, "REV_AT_EPOCH": 10854, "BSTAR": 0.00050539785, "MEAN_MOTION_DOT": 0.00013659, "MEAN_MOTION_DDOT": 0}, "tle": {"line1": "1 58660U 23208A   25344.91065689  .00013659  00000+0  50540-3 0  9992", "line2": "2 58660  97.4387  95.9512 0004038 261.3704  98.7078 15.27794559108545"}}, "geometry": {"type": "Point", "coordinates": [-86.16200772028772, -17.843717316401676]}}, {"type": "Feature", "properties": {"norad_id": 58661, "name": "TIANMU-1 20", "group": "weather", "lat": -81.36854996990864, "lon": -142.6195286253991, "alt_km": 481.9063695634104, "timestamp": "2025-12-11T05:00:25.955111+00:00", "meta": {"OBJECT_NAME": "TIANMU-1 20", "OBJECT_ID": "2023-208B", "EPOCH": "2025-12-10T23:08:11.687424", "MEAN_MOTION": 15.28986869, "ECCENTRICITY": 0.00062896, "INCLINATION": 97.4323, "RA_OF_ASC_NODE": 96.4503, "ARG_OF_PERICENTER": 273.5497, "MEAN_ANOMALY": 86.5023, "EPHEMERIS_TYPE": 0, "CLASSIFICATION_TYPE": "U", "NORAD_CAT_ID": 58661, "ELEMENT_SET_NO": 999, "REV_AT_EPOCH": 10862, "BSTAR": 0.0004766945, "MEAN_MOTION_DOT": 0.00013361, "MEAN_MOTION_DDOT": 0}, "tle": {"line1": "1 58661U 23208B   25344.96402416  .00013361  00000+0  47669-3 0  9999", "line2": "2 58661  97.4323  96.4503 0006289 273.5497  86.5023 15.28986869108628"}}, "geometry": {"type": "Point", "coordinates": [-142.6195286253991, -81.36854996990864]}}]}